STARLINK-30224          
1 57416U 23102N   26183.07786101  .00004749  00000+0  18194-3 0  9990
2 57416  43.0049 322.6138 0000428 306.9333  53.1479 15.27589033163733
STARLINK-30043          
1 57417U 23102P   26183.07914353  .00000974  00000+0  44914-4 0  9999
2 57417  43.0075 322.6244 0001033 279.9226  80.1509 15.27586239163733
STARLINK-30221          
1 57418U 23102Q   26183.10899174 -.00001878  00000+0 -58693-4 0  9992
2 57418  43.0040 329.6775 0001372 264.7016  95.3679 15.27603896163653
STARLINK-30188          
1 57432U 23105C   26183.58335648  .00732141  00000+0  16594-1 0  9997
2 57432  43.0004 333.8881 0001415 309.0882 257.5841 15.39869145  5850
STARLINK-30105          
1 57433U 23105D   26182.77691859  .00000690  00000+0  34594-4 0  9997
2 57433  43.0045 106.5305 0001571 272.3854  87.6818 15.27579848165775
STARLINK-30102          
1 57434U 23105E   26183.13171483 -.00001238  00000+0 -35491-4 0  9993
2 57434  43.0015 333.5996 0000264 281.3813  78.7009 15.27563154163037
STARLINK-30158          
1 57438U 23105J   26183.13425936  .00001479  00000+0  63262-4 0  9994
2 57438  43.0061 333.6181 0001580 270.3443  89.7228 15.27588306163084
STARLINK-30160          
1 57441U 23105M   26183.51790992 -.00001172  00000+0 -33092-4 0  9997
2 57441  43.0025 338.1505 0001109 275.2000  84.8725 15.27564585162909
STARLINK-30146          
1 57442U 23105N   26183.13811505  .00001568  00000+0  66488-4 0  9992
2 57442  43.0057 333.6454 0002689 271.4877  88.5666 15.27584592163144
STARLINK-30197          
1 57443U 23105P   26182.85601203  .00007242  00000+0  27249-3 0  9999
2 57443  43.0033 334.9664 0000920 280.2219  79.8529 15.27573291163044
STARLINK-30181          
1 57444U 23105Q   26183.12219463 -.00002373  00000+0 -76650-4 0  9997
2 57444  43.0057 336.9311 0001761 272.4429  87.6221 15.27612122163102
STARLINK-30215          
1 57445U 23105R   26183.47278299 -.00001978  00000+0 -62412-4 0  9999
2 57445  43.0051 331.8554 0001759 261.4041  98.6611 15.27561472162975
STARLINK-30162          
1 57446U 23105S   26183.64971355  .00000380  00000+0  23329-4 0  9990
2 57446  43.0030 319.5677 0001268 273.0941  86.9765 15.27579305163295
STARLINK-30178          
1 57447U 23105T   26183.46892238 -.00001270  00000+0 -36652-4 0  9997
2 57447  43.0052 331.8259 0001852 266.5783  93.4857 15.27567388163139
STARLINK-30196          
1 57448U 23105U   26183.50682437  .00000901  00000+0  42262-4 0  9993
2 57448  43.0022 334.6559 0001560 265.8114  94.2559 15.27570968162941
STARLINK-30225          
1 57449U 23105V   26183.11835305  .00002335  00000+0  94344-4 0  9996
2 57449  43.0047 336.8968 0001394 269.0086  91.0606 15.27583145163104
STARLINK-30217          
1 57450U 23105W   26183.65229594  .00000521  00000+0  28477-4 0  9993
2 57450  43.0040 319.6334 0001658 266.1770  93.8892 15.27577131163291
STARLINK-30216          
1 57451U 23105X   26183.48676652 -.00001239  00000+0 -35524-4 0  9996
2 57451  43.0028 331.1135 0001709 260.5109  99.5549 15.27570751162985
STARLINK-30165          
1 57457U 23107A   26182.97732379  .00000341  00000+0  21937-4 0  9990
2 57457  43.0020  50.8664 0001442 263.6634  96.4053 15.27564468162610
STARLINK-30140          
1 57458U 23107B   26183.60756908 -.00002022  00000+0 -64018-4 0  9993
2 57458  43.0022  50.4045 0000916 281.5347  78.5402 15.27567870162683
STARLINK-30077          
1 57460U 23107D   26183.32723460 -.00000558  00000+0 -10789-4 0  9990
2 57460  43.0022  48.3375 0000481 302.7870  57.2936 15.27563295162685
STARLINK-30229          
1 57461U 23107E   26183.59565218 -.00002098  00000+0 -66785-4 0  9993
2 57461  42.9972  54.5808 0000444 289.0650  71.0153 15.27568923162633
STARLINK-30088          
1 57462U 23107F   26182.91707663 -.00003414  00000+0 -11465-3 0  9998
2 57462  43.0030  51.2729 0001514 274.6270  85.4409 15.27557918162617
STARLINK-30116          
1 57465U 23107J   26183.62604314 -.00000274  00000+0 -42344-6 0  9993
2 57465  43.0051  47.1332 0001900 265.7472  94.3162 15.27574928162728
STARLINK-30092          
1 57467U 23107L   26183.62989083  .00003701  00000+0  14391-3 0  9998
2 57467  43.0026  47.1596 0001609 279.4832  80.5838 15.27589059162720
STARLINK-30039          
1 57468U 23107M   26182.91452983 -.00002742  00000+0 -90243-4 0  9991
2 57468  43.0030  51.2507 0001068 263.8245  96.2485 15.27552422162612
STARLINK-30171          
1 57469U 23107N   26183.34986767  .00001079  00000+0  48733-4 0  9999
2 57469  43.0041  51.9099 0001580 267.8861  92.1810 15.27580969162642
STARLINK-30186          
1 57470U 23107P   26183.58335648  .00183171  00000+0  35733-2 0  9991
2 57470  43.0003  52.4368 0001939 267.4005 220.4627 15.46100887  5872
STARLINK-30204          
1 57472U 23107R   26183.61576312 -.00000772  00000+0 -18523-4 0  9999
2 57472  43.0049  47.0535 0001539 264.3097  95.7580 15.27578702162726
STARLINK-30155          
1 57475U 23107U   26183.65543676  .00001500  00000+0  64029-4 0  9993
2 57475  43.0004  46.4925 0001122 271.3209  88.7514 15.27582247162736
