OBJECT_NAME,OBJECT_ID,EPOCH,MEAN_MOTION,ECCENTRICITY,INCLINATION,RA_OF_ASC_NODE,ARG_OF_PERICENTER,MEAN_ANOMALY,EPHEMERIS_TYPE,CLASSIFICATION_TYPE,NORAD_CAT_ID,ELEMENT_SET_NO,REV_AT_EPOCH,BSTAR,MEAN_MOTION_DOT,MEAN_MOTION_DDOT
STARLINK-30224,2023-102N,2026-07-02T01:52:07.191264,15.27589033,.00004289,43.0049,322.6138,306.9333,53.1479,0,U,57416,999,16373,.18194344E-3,.4749E-4,0
STARLINK-30043,2023-102P,2026-07-02T01:53:58.000992,15.27586239,.00010332,43.0075,322.6244,279.9226,80.1509,0,U,57417,999,16373,.44914434E-4,.974E-5,0
STARLINK-30221,2023-102Q,2026-07-02T02:36:56.886336,15.27603896,.0001372,43.0040,329.6775,264.7016,95.3679,0,U,57418,999,16365,-.58693443E-4,-.1878E-4,0
STARLINK-30188,2023-105C,2026-07-02T14:00:01.999872,15.39869145,.00014157,43.0004,333.8881,309.0882,257.5841,0,U,57432,999,585,.16593578E-1,.732141E-2,0
STARLINK-30105,2023-105D,2026-07-01T18:38:45.766176,15.27579848,.00015711,43.0045,106.5305,272.3854,87.6818,0,U,57433,999,16577,.3459424E-4,.69E-5,0
STARLINK-30102,2023-105E,2026-07-02T03:09:40.161312,15.27563154,.00002644,43.0015,333.5996,281.3813,78.7009,0,U,57434,999,16303,-.35491339E-4,-.1238E-4,0
STARLINK-30158,2023-105J,2026-07-02T03:13:20.008704,15.27588306,.00015805,43.0061,333.6181,270.3443,89.7228,0,U,57438,999,16308,.63262383E-4,.1479E-4,0
STARLINK-30160,2023-105M,2026-07-02T12:25:47.417088,15.27564585,.00011094,43.0025,338.1505,275.2000,84.8725,0,U,57441,999,16290,-.33092326E-4,-.1172E-4,0
STARLINK-30146,2023-105N,2026-07-02T03:18:53.140320,15.27584592,.00026892,43.0057,333.6454,271.4877,88.5666,0,U,57442,999,16314,.66488193E-4,.1568E-4,0
STARLINK-30197,2023-105P,2026-07-01T20:32:39.439392,15.27573291,.000092,43.0033,334.9664,280.2219,79.8529,0,U,57443,999,16304,.27249299E-3,.7242E-4,0
STARLINK-30181,2023-105Q,2026-07-02T02:55:57.616032,15.27612122,.00017611,43.0057,336.9311,272.4429,87.6221,0,U,57444,999,16310,-.76650074E-4,-.2373E-4,0
STARLINK-30215,2023-105R,2026-07-02T11:20:48.450336,15.27561472,.00017596,43.0051,331.8554,261.4041,98.6611,0,U,57445,999,16297,-.62411552E-4,-.1978E-4,0
STARLINK-30162,2023-105S,2026-07-02T15:35:35.250720,15.27579305,.00012687,43.0030,319.5677,273.0941,86.9765,0,U,57446,999,16329,.23329362E-4,.38E-5,0
STARLINK-30178,2023-105T,2026-07-02T11:15:14.893632,15.27567388,.00018521,43.0052,331.8259,266.5783,93.4857,0,U,57447,999,16313,-.36651712E-4,-.127E-4,0
STARLINK-30196,2023-105U,2026-07-02T12:09:49.625568,15.27570968,.00015608,43.0022,334.6559,265.8114,94.2559,0,U,57448,999,16294,.42261992E-4,.901E-5,0
STARLINK-30225,2023-105V,2026-07-02T02:50:25.703520,15.27583145,.00013941,43.0047,336.8968,269.0086,91.0606,0,U,57449,999,16310,.94344283E-4,.2335E-4,0
STARLINK-30217,2023-105W,2026-07-02T15:39:18.369216,15.27577131,.00016586,43.0040,319.6334,266.1770,93.8892,0,U,57450,999,16329,.28477031E-4,.521E-5,0
STARLINK-30216,2023-105X,2026-07-02T11:40:56.627328,15.27570751,.00017093,43.0028,331.1135,260.5109,99.5549,0,U,57451,999,16298,-.3552384E-4,-.1239E-4,0
STARLINK-30165,2023-107A,2026-07-01T23:27:20.775456,15.27564468,.00014423,43.0020,50.8664,263.6634,96.4053,0,U,57457,999,16261,.21937333E-4,.341E-5,0
STARLINK-30140,2023-107B,2026-07-02T14:34:53.968512,15.27567870,.00009163,43.0022,50.4045,281.5347,78.5402,0,U,57458,999,16268,-.64018309E-4,-.2022E-4,0
STARLINK-30077,2023-107D,2026-07-02T07:51:13.069440,15.27563295,.00004819,43.0022,48.3375,302.7870,57.2936,0,U,57460,999,16268,-.10788724E-4,-.558E-5,0
STARLINK-30229,2023-107E,2026-07-02T14:17:44.348352,15.27568923,.00004448,42.9972,54.5808,289.0650,71.0153,0,U,57461,999,16263,-.66785226E-4,-.2098E-4,0
STARLINK-30088,2023-107F,2026-07-01T22:00:35.420832,15.27557918,.00015146,43.0030,51.2729,274.6270,85.4409,0,U,57462,999,16261,-.11465298E-3,-.3414E-4,0
STARLINK-30116,2023-107J,2026-07-02T15:01:30.127296,15.27574928,.00019007,43.0051,47.1332,265.7472,94.3162,0,U,57465,999,16272,-.423439E-6,-.274E-5,0
STARLINK-30092,2023-107L,2026-07-02T15:07:02.567712,15.27589059,.00016099,43.0026,47.1596,279.4832,80.5838,0,U,57467,999,16272,.14391187E-3,.3701E-4,0
STARLINK-30039,2023-107M,2026-07-01T21:56:55.377312,15.27552422,.00010683,43.0030,51.2507,263.8245,96.2485,0,U,57468,999,16261,-.90242665E-4,-.2742E-4,0
STARLINK-30171,2023-107N,2026-07-02T08:23:48.566688,15.27580969,.00015807,43.0041,51.9099,267.8861,92.1810,0,U,57469,999,16264,.48732526E-4,.1079E-4,0
STARLINK-30186,2023-107P,2026-07-02T14:00:01.999872,15.46100887,.00019391,43.0003,52.4368,267.4005,220.4627,0,U,57470,999,587,.35732778E-2,.183171E-2,0
STARLINK-30204,2023-107R,2026-07-02T14:46:41.933568,15.27578702,.00015393,43.0049,47.0535,264.3097,95.7580,0,U,57472,999,16272,-.18522778E-4,-.772E-5,0
STARLINK-30155,2023-107U,2026-07-02T15:43:49.736064,15.27582247,.00011225,43.0004,46.4925,271.3209,88.7514,0,U,57475,999,16273,.64028852E-4,.15E-4,0
